[{"OBJECT_NAME":"STARLINK-31212","OBJECT_ID":"2024-019Y","EPOCH":"2026-03-09T12:57:40.886784","MEAN_MOTION":15.27568832,"ECCENTRICITY":8.631e-5,"INCLINATION":42.9981,"RA_OF_ASC_NODE":249.4121,"ARG_OF_PERICENTER":255.9308,"MEAN_ANOMALY":104.1448,"EPHEMERIS_TYPE":0,"CLASSIFICATION_TYPE":"U","NORAD_CAT_ID":58875,"ELEMENT_SET_NO":999,"REV_AT_EPOCH":11904,"BSTAR":-6.2490886e-5,"MEAN_MOTION_DOT":-1.98e-5,"MEAN_MOTION_DDOT":0},{"OBJECT_NAME":"OBJECT F","OBJECT_ID":"2026-023F","EPOCH":"2026-03-09T17:11:01.401216","MEAN_MOTION":15.23264948,"ECCENTRICITY":0.00223432,"INCLINATION":96.6318,"RA_OF_ASC_NODE":144.1544,"ARG_OF_PERICENTER":121.6413,"MEAN_ANOMALY":238.701,"EPHEMERIS_TYPE":0,"CLASSIFICATION_TYPE":"U","NORAD_CAT_ID":67679,"ELEMENT_SET_NO":999,"REV_AT_EPOCH":484,"BSTAR":0.00053756888,"MEAN_MOTION_DOT":0.00012778,"MEAN_MOTION_DDOT":0}]
